OBJECT_NAME,OBJECT_ID,EPOCH,MEAN_MOTION,ECCENTRICITY,INCLINATION,RA_OF_ASC_NODE,ARG_OF_PERICENTER,MEAN_ANOMALY,EPHEMERIS_TYPE,CLASSIFICATION_TYPE,NORAD_CAT_ID,ELEMENT_SET_NO,REV_AT_EPOCH,BSTAR,MEAN_MOTION_DOT,MEAN_MOTION_DDOT
TRANSPORTER-17 OBJECT AF,2026-156AF,2026-07-20T15:00:55.950912,14.91463445,.00070564,97.7548,101.8600,98.9934,261.2083,0,U,69898,999,198,.49571748E-4,.44E-5,0
TRANSPORTER-17 OBJECT AG,2026-156AG,2026-07-20T13:27:57.997152,14.91180071,.00066572,97.7513,101.7843,87.9310,272.2671,0,U,69899,999,197,.64318514E-4,.583E-5,0
TRANSPORTER-17 OBJECT AH,2026-156AH,2026-07-20T13:28:08.494752,14.91168927,.00060635,97.7566,101.7938,92.2499,267.9414,0,U,69900,999,197,.79283235E-4,.732E-5,0
TRANSPORTER-17 OBJECT AJ,2026-156AJ,2026-07-20T13:29:12.951744,14.91079539,.00061978,97.7527,101.7856,86.7295,273.4633,0,U,69901,999,197,.43876803E-4,.379E-5,0
TRANSPORTER-17 OBJECT AK,2026-156AK,2026-07-20T13:30:17.481312,14.90999637,.0005789,97.7493,101.7797,84.0691,276.1188,0,U,69902,999,197,.97614068E-4,.91E-5,0
TRANSPORTER-17 OBJECT AL,2026-156AL,2026-07-20T13:30:27.829440,14.90984662,.00049668,97.7576,101.7924,92.6067,267.5720,0,U,69903,999,197,.8534919E-4,.788E-5,0
TRANSPORTER-17 OBJECT AM,2026-156AM,2026-07-19T14:50:26.614176,14.91578350,.00077448,97.7514,100.8646,102.7766,257.4319,0,U,69904,999,172,.66455502E-4,.611E-5,0
TRANSPORTER-17 OBJECT AN,2026-156AN,2026-07-20T15:06:37.973088,14.91033595,.00053107,97.7568,101.8579,90.6449,269.5377,0,U,69905,999,198,.1763155E-3,.1689E-4,0
TRANSPORTER-17 OBJECT AP,2026-156AP,2026-07-20T13:30:56.447712,14.90945058,.00055896,97.7476,101.7769,81.3512,278.8339,0,U,69906,999,197,.520895E-4,.459E-5,0
TRANSPORTER-17 OBJECT AQ,2026-156AQ,2026-07-20T13:31:03.751104,14.90933153,.0005238,97.7500,101.7802,85.1929,274.9887,0,U,69907,999,197,.30213282E-4,.243E-5,0
TRANSPORTER-17 OBJECT AR,2026-156AR,2026-07-20T13:24:19.097568,14.91468262,.00075195,97.7520,101.7885,96.3577,263.8498,0,U,69908,999,197,.8279639E-4,.773E-5,0
TRANSPORTER-17 OBJECT AS,2026-156AS,2026-07-20T15:01:50.622240,14.91394307,.00069995,97.7539,101.8573,95.9290,264.2727,0,U,69909,999,198,.59612137E-4,.54E-5,0
TRANSPORTER-17 OBJECT AT,2026-156AT,2026-07-20T13:30:56.088288,14.90962621,.00048719,97.7550,101.7875,93.0812,267.0964,0,U,69910,999,197,.1956432E-3,.1877E-4,0
TRANSPORTER-17 OBJECT AU,2026-156AU,2026-07-20T13:34:09.107616,14.90694881,.00037217,97.7539,101.7830,89.9852,270.1792,0,U,69911,999,197,.66311814E-4,.596E-5,0
TRANSPORTER-17 OBJECT AV,2026-156AV,2026-07-20T13:32:43.588896,14.90808113,.00041398,97.7556,101.7866,92.9502,267.2190,0,U,69912,999,197,.86511905E-4,.796E-5,0
TRANSPORTER-17 OBJECT AW,2026-156AW,2026-07-20T13:31:38.429472,14.90892329,.00042913,97.7582,101.7911,101.3508,258.8192,0,U,69913,999,197,.69213261E-4,.627E-5,0
TRANSPORTER-17 OBJECT AX,2026-156AX,2026-07-20T13:33:33.779520,14.90740862,.00044529,97.7561,101.7873,79.9329,280.2392,0,U,69914,999,197,.67592842E-4,.609E-5,0
TRANSPORTER-17 OBJECT AY,2026-156AY,2026-07-20T14:57:55.103616,14.91703301,.00083003,97.7514,101.8557,102.1526,258.0623,0,U,69915,999,198,.83220232E-4,.782E-5,0
TRANSPORTER-17 OBJECT AZ,2026-156AZ,2026-07-20T13:32:04.870464,14.90865478,.00045701,97.7519,101.7822,88.4986,271.6756,0,U,69916,999,197,.12919795E-3,.1218E-4,0
TRANSPORTER-17 OBJECT BA,2026-156BA,2026-07-20T14:47:35.298528,14.92512962,.00111295,97.7575,101.8756,114.6196,245.6183,0,U,69917,999,198,.11078398E-3,.1082E-4,0
TRANSPORTER-17 OBJECT BB,2026-156BB,2026-07-20T14:57:26.519904,14.91735999,.00078201,97.7553,101.8643,106.0684,254.1397,0,U,69918,999,198,.49572293E-4,.444E-5,0
TRANSPORTER-17 OBJECT BC,2026-156BC,2026-07-20T16:32:22.735392,14.91864810,.00086514,97.7521,101.9255,105.7656,254.4518,0,U,69919,999,199,.51733111E-4,.467E-5,0
TRANSPORTER-17 OBJECT BD,2026-156BD,2026-07-20T13:18:06.114816,14.91961301,.00090192,97.7525,101.7955,106.6162,253.6048,0,U,69920,999,197,.12640621E-3,.1225E-4,0
TRANSPORTER-17 OBJECT BE,2026-156BE,2026-07-20T16:32:05.275680,14.91899851,.00083411,97.7552,101.9316,108.6108,251.6018,0,U,69921,999,199,.12799549E-3,.1239E-4,0
TRANSPORTER-17 OBJECT BF,2026-156BF,2026-07-20T14:54:29.377440,14.91965209,.00090842,97.7520,101.8606,106.9498,253.2718,0,U,69922,999,198,.33081288E-4,.279E-5,0
TRANSPORTER-17 OBJECT BG,2026-156BG,2026-07-20T16:30:56.864160,14.91979672,.00091818,97.7515,101.9260,105.8823,254.3408,0,U,69923,999,199,.81895012E-4,.774E-5,0
TRANSPORTER-17 OBJECT BH,2026-156BH,2026-07-20T14:52:35.498784,14.92116083,.0009795,97.7523,101.8633,106.0971,254.1327,0,U,69924,999,198,.62506005E-4,.58E-5,0
TRANSPORTER-17 OBJECT BJ,2026-156BJ,2026-07-20T14:52:16.490784,14.92176515,.00102078,97.7509,101.8618,104.1789,256.0564,0,U,69925,999,198,.28047814E-3,.2802E-4,0
TRANSPORTER-17 OBJECT BK,2026-156BK,2026-07-20T14:51:29.566944,14.92217370,.00098153,97.7581,101.8733,114.0811,246.1436,0,U,69926,999,198,.19417536E-3,.1924E-4,0
