TRANSPORTER-17 OBJECT AF
1 69898U 26156AF  26201.62564758  .00000440  00000+0  49572-4 0  9992
2 69898  97.7548 101.8600 0007056  98.9934 261.2083 14.91463445  1989
TRANSPORTER-17 OBJECT AG
1 69899U 26156AG  26201.56108793  .00000583  00000+0  64319-4 0  9993
2 69899  97.7513 101.7843 0006657  87.9310 272.2671 14.91180071  1977
TRANSPORTER-17 OBJECT AH
1 69900U 26156AH  26201.56120943  .00000732  00000+0  79283-4 0  9999
2 69900  97.7566 101.7938 0006063  92.2499 267.9414 14.91168927  1973
TRANSPORTER-17 OBJECT AJ
1 69901U 26156AJ  26201.56195546  .00000379  00000+0  43877-4 0  9998
2 69901  97.7527 101.7856 0006197  86.7295 273.4633 14.91079539  1975
TRANSPORTER-17 OBJECT AK
1 69902U 26156AK  26201.56270233  .00000910  00000+0  97614-4 0  9995
2 69902  97.7493 101.7797 0005789  84.0691 276.1188 14.90999637  1973
TRANSPORTER-17 OBJECT AL
1 69903U 26156AL  26201.56282210  .00000788  00000+0  85349-4 0  9999
2 69903  97.7576 101.7924 0004966  92.6067 267.5720 14.90984662  1974
TRANSPORTER-17 OBJECT AM
1 69904U 26156AM  26200.61836359  .00000611  00000+0  66456-4 0  9997
2 69904  97.7514 100.8646 0007744 102.7766 257.4319 14.91578350  1723
TRANSPORTER-17 OBJECT AN
1 69905U 26156AN  26201.62960617  .00001689  00000+0  17632-3 0  9992
2 69905  97.7568 101.8579 0005310  90.6449 269.5377 14.91033595  1982
TRANSPORTER-17 OBJECT AP
1 69906U 26156AP  26201.56315333  .00000459  00000+0  52090-4 0  9997
2 69906  97.7476 101.7769 0005589  81.3512 278.8339 14.90945058  1972
TRANSPORTER-17 OBJECT AQ
1 69907U 26156AQ  26201.56323786  .00000243  00000+0  30213-4 0  9993
2 69907  97.7500 101.7802 0005238  85.1929 274.9887 14.90933153  1972
TRANSPORTER-17 OBJECT AR
1 69908U 26156AR  26201.55855437  .00000773  00000+0  82796-4 0  9997
2 69908  97.7520 101.7885 0007519  96.3577 263.8498 14.91468262  1973
TRANSPORTER-17 OBJECT AS
1 69909U 26156AS  26201.62628035  .00000540  00000+0  59612-4 0  9991
2 69909  97.7539 101.8573 0006999  95.9290 264.2727 14.91394307  1986
TRANSPORTER-17 OBJECT AT
1 69910U 26156AT  26201.56314917  .00001877  00000+0  19564-3 0  9992
2 69910  97.7550 101.7875 0004871  93.0812 267.0964 14.90962621  1973
TRANSPORTER-17 OBJECT AU
1 69911U 26156AU  26201.56538319  .00000596  00000+0  66312-4 0  9998
2 69911  97.7539 101.7830 0003721  89.9852 270.1792 14.90694881  1977
TRANSPORTER-17 OBJECT AV
1 69912U 26156AV  26201.56439339  .00000796  00000+0  86512-4 0  9997
2 69912  97.7556 101.7866 0004139  92.9502 267.2190 14.90808113  1970
TRANSPORTER-17 OBJECT AW
1 69913U 26156AW  26201.56363923  .00000627  00000+0  69213-4 0  9995
2 69913  97.7582 101.7911 0004291 101.3508 258.8192 14.90892329  1971
TRANSPORTER-17 OBJECT AX
1 69914U 26156AX  26201.56497430  .00000609  00000+0  67593-4 0  9996
2 69914  97.7561 101.7873 0004452  79.9329 280.2392 14.90740862  1971
TRANSPORTER-17 OBJECT AY
1 69915U 26156AY  26201.62355444  .00000782  00000+0  83220-4 0  9999
2 69915  97.7514 101.8557 0008300 102.1526 258.0623 14.91703301  1983
TRANSPORTER-17 OBJECT AZ
1 69916U 26156AZ  26201.56394526  .00001218  00000+0  12920-3 0  9990
2 69916  97.7519 101.7822 0004570  88.4986 271.6756 14.90865478  1974
TRANSPORTER-17 OBJECT BA
1 69917U 26156BA  26201.61638077  .00001082  00000+0  11078-3 0  9991
2 69917  97.7575 101.8756 0011129 114.6196 245.6183 14.92512962  1982
TRANSPORTER-17 OBJECT BB
1 69918U 26156BB  26201.62322361  .00000444  00000+0  49572-4 0  9991
2 69918  97.7553 101.8643 0007820 106.0684 254.1397 14.91735999  1982
TRANSPORTER-17 OBJECT BC
1 69919U 26156BC  26201.68915203  .00000467  00000+0  51733-4 0  9998
2 69919  97.7521 101.9255 0008651 105.7656 254.4518 14.91864810  1990
TRANSPORTER-17 OBJECT BD
1 69920U 26156BD  26201.55423744  .00001225  00000+0  12641-3 0  9997
2 69920  97.7525 101.7955 0009019 106.6162 253.6048 14.91961301  1972
TRANSPORTER-17 OBJECT BE
1 69921U 26156BE  26201.68894995  .00001239  00000+0  12800-3 0  9994
2 69921  97.7552 101.9316 0008341 108.6108 251.6018 14.91899851  1992
TRANSPORTER-17 OBJECT BF
1 69922U 26156BF  26201.62117335  .00000279  00000+0  33081-4 0  9993
2 69922  97.7520 101.8606 0009084 106.9498 253.2718 14.91965209  1982
TRANSPORTER-17 OBJECT BG
1 69923U 26156BG  26201.68815815  .00000774  00000+0  81895-4 0  9994
2 69923  97.7515 101.9260 0009181 105.8823 254.3408 14.91979672  1990
TRANSPORTER-17 OBJECT BH
1 69924U 26156BH  26201.61985531  .00000580  00000+0  62506-4 0  9994
2 69924  97.7523 101.8633 0009795 106.0971 254.1327 14.92116083  1988
TRANSPORTER-17 OBJECT BJ
1 69925U 26156BJ  26201.61963531  .00002802  00000+0  28048-3 0  9992
2 69925  97.7509 101.8618 0010207 104.1789 256.0564 14.92176515  1982
TRANSPORTER-17 OBJECT BK
1 69926U 26156BK  26201.61909221  .00001924  00000+0  19418-3 0  9994
2 69926  97.7581 101.8733 0009815 114.0811 246.1436 14.92217370  1983
